{
  "type": "FeatureCollection",
  "features": [
    {
      "type": "Feature",
      "properties": {
        "norad_id": 34784,
        "name": "COSMOS 2251 DEB",
        "group": "cosmos-2251-debris",
        "lat": 39.95639677938202,
        "lon": 110.84524693955551,
        "alt_km": 656.05197218382,
        "timestamp": "2025-12-22T23:36:21.111836+00:00",
        "meta_object_name": "COSMOS 2251 DEB",
        "meta_object_id": "1993-036AAM",
        "meta_epoch": "2025-12-22T03:15:24.680448",
        "meta_mean_motion": 14.60818726,
        "meta_eccentricity": 0.00491808,
        "meta_inclination": 74.0079,
        "meta_ra_of_asc_node": 306.3699,
        "meta_arg_of_pericenter": 112.8499,
        "meta_mean_anomaly": 247.7872,
        "meta_ephemeris_type": 0,
        "meta_classification_type": "U",
        "meta_norad_cat_id": 34784,
        "meta_element_set_no": 999,
        "meta_rev_at_epoch": 88672,
        "meta_bstar": 0.00046694369,
        "meta_mean_motion_dot": 2.29e-05,
        "meta_mean_motion_ddot": 0,
        "tle_line1": "1 34784U 93036AAM 25356.13570232  .00002290  00000+0  46694-3 0  9995",
        "tle_line2": "2 34784  74.0079 306.3699 0049180 112.8499 247.7872 14.60818726886728"
      },
      "geometry": {
        "type": "Point",
        "coordinates": [
          110.84524693955551,
          39.95639677938202
        ]
      }
    },
    {
      "type": "Feature",
      "properties": {
        "norad_id": 34790,
        "name": "COSMOS 2251 DEB",
        "group": "cosmos-2251-debris",
        "lat": 12.496149132447592,
        "lon": -131.10425586445658,
        "alt_km": 807.7142498620578,
        "timestamp": "2025-12-22T23:36:21.111846+00:00",
        "meta_object_name": "COSMOS 2251 DEB",
        "meta_object_id": "1993-036AAT",
        "meta_epoch": "2025-12-22T09:12:55.155744",
        "meta_mean_motion": 14.2466234,
        "meta_eccentricity": 0.01005704,
        "meta_inclination": 74.0529,
        "meta_ra_of_asc_node": 226.3418,
        "meta_arg_of_pericenter": 285.9399,
        "meta_mean_anomaly": 251.9972,
        "meta_ephemeris_type": 0,
        "meta_classification_type": "U",
        "meta_norad_cat_id": 34790,
        "meta_element_set_no": 999,
        "meta_rev_at_epoch": 86710,
        "meta_bstar": 0.00052625644,
        "meta_mean_motion_dot": 1.264e-05,
        "meta_mean_motion_ddot": 0,
        "tle_line1": "1 34790U 93036AAT 25356.38397171  .00001264  00000+0  52626-3 0  9990",
        "tle_line2": "2 34790  74.0529 226.3418 0100570 285.9399 251.9972 14.24662340867105"
      },
      "geometry": {
        "type": "Point",
        "coordinates": [
          -131.10425586445658,
          12.496149132447592
        ]
      }
    },
    {
      "type": "Feature",
      "properties": {
        "norad_id": 34792,
        "name": "COSMOS 2251 DEB",
        "group": "cosmos-2251-debris",
        "lat": 33.55776729416125,
        "lon": 161.22569941332657,
        "alt_km": 711.1881673807338,
        "timestamp": "2025-12-22T23:36:21.111856+00:00",
        "meta_object_name": "COSMOS 2251 DEB",
        "meta_object_id": "1993-036AAV",
        "meta_epoch": "2025-12-22T04:28:07.603968",
        "meta_mean_motion": 14.5602851,
        "meta_eccentricity": 0.00123771,
        "meta_inclination": 74.0175,
        "meta_ra_of_asc_node": 151.7792,
        "meta_arg_of_pericenter": 246.3273,
        "meta_mean_anomaly": 290.8722,
        "meta_ephemeris_type": 0,
        "meta_classification_type": "U",
        "meta_norad_cat_id": 34792,
        "meta_element_set_no": 999,
        "meta_rev_at_epoch": 87787,
        "meta_bstar": 0.0010753031,
        "meta_mean_motion_dot": 4.713e-05,
        "meta_mean_motion_ddot": 0,
        "tle_line1": "1 34792U 93036AAV 25356.18619912  .00004713  00000+0  10753-2 0  9996",
        "tle_line2": "2 34792  74.0175 151.7792 0012377 246.3273 290.8722 14.56028510877879"
      },
      "geometry": {
        "type": "Point",
        "coordinates": [
          161.22569941332657,
          33.55776729416125
        ]
      }
    },
    {
      "type": "Feature",
      "properties": {
        "norad_id": 34793,
        "name": "COSMOS 2251 DEB",
        "group": "cosmos-2251-debris",
        "lat": -67.77425688356605,
        "lon": 96.03931935403779,
        "alt_km": 792.3210204585757,
        "timestamp": "2025-12-22T23:36:21.111867+00:00",
        "meta_object_name": "COSMOS 2251 DEB",
        "meta_object_id": "1993-036AAW",
        "meta_epoch": "2025-12-22T03:08:53.267712",
        "meta_mean_motion": 14.38658717,
        "meta_eccentricity": 0.00506999,
        "meta_inclination": 74.0019,
        "meta_ra_of_asc_node": 233.0168,
        "meta_arg_of_pericenter": 24.7364,
        "meta_mean_anomaly": 137.0783,
        "meta_ephemeris_type": 0,
        "meta_classification_type": "U",
        "meta_norad_cat_id": 34793,
        "meta_element_set_no": 999,
        "meta_rev_at_epoch": 87465,
        "meta_bstar": 0.00020709112,
        "meta_mean_motion_dot": 6.18e-06,
        "meta_mean_motion_ddot": 0,
        "tle_line1": "1 34793U 93036AAW 25356.13117208  .00000618  00000+0  20709-3 0  9996",
        "tle_line2": "2 34793  74.0019 233.0168 0050699  24.7364 137.0783 14.38658717874656"
      },
      "geometry": {
        "type": "Point",
        "coordinates": [
          96.03931935403779,
          -67.77425688356605
        ]
      }
    },
    {
      "type": "Feature",
      "properties": {
        "norad_id": 34796,
        "name": "COSMOS 2251 DEB",
        "group": "cosmos-2251-debris",
        "lat": 0.35286677548220824,
        "lon": -162.7598425830188,
        "alt_km": 700.0217424836164,
        "timestamp": "2025-12-22T23:36:21.111877+00:00",
        "meta_object_name": "COSMOS 2251 DEB",
        "meta_object_id": "1993-036AAZ",
        "meta_epoch": "2025-12-21T06:43:38.254368",
        "meta_mean_motion": 14.48726221,
        "meta_eccentricity": 0.010028,
        "meta_inclination": 74.0288,
        "meta_ra_of_asc_node": 200.3317,
        "meta_arg_of_pericenter": 300.5709,
        "meta_mean_anomaly": 179.2041,
        "meta_ephemeris_type": 0,
        "meta_classification_type": "U",
        "meta_norad_cat_id": 34796,
        "meta_element_set_no": 999,
        "meta_rev_at_epoch": 88151,
        "meta_bstar": 0.00042485,
        "meta_mean_motion_dot": 1.677e-05,
        "meta_mean_motion_ddot": 0,
        "tle_line1": "1 34796U 93036AAZ 25355.28030387  .00001677  00000+0  42485-3 0  9997",
        "tle_line2": "2 34796  74.0288 200.3317 0100280 300.5709 179.2041 14.48726221881515"
      },
      "geometry": {
        "type": "Point",
        "coordinates": [
          -162.7598425830188,
          0.35286677548220824
        ]
      }
    },
    {
      "type": "Feature",
      "properties": {
        "norad_id": 34797,
        "name": "COSMOS 2251 DEB",
        "group": "cosmos-2251-debris",
        "lat": -73.94334266450562,
        "lon": -12.389481457516263,
        "alt_km": 743.4348110796545,
        "timestamp": "2025-12-22T23:36:21.111888+00:00",
        "meta_object_name": "COSMOS 2251 DEB",
        "meta_object_id": "1993-036ABA",
        "meta_epoch": "2025-12-22T12:22:54.757056",
        "meta_mean_motion": 14.42950692,
        "meta_eccentricity": 0.00710542,
        "meta_inclination": 73.9783,
        "meta_ra_of_asc_node": 81.7691,
        "meta_arg_of_pericenter": 193.6898,
        "meta_mean_anomaly": 166.2334,
        "meta_ephemeris_type": 0,
        "meta_classification_type": "U",
        "meta_norad_cat_id": 34797,
        "meta_element_set_no": 999,
        "meta_rev_at_epoch": 87556,
        "meta_bstar": 0.0021692417,
        "meta_mean_motion_dot": 7.461e-05,
        "meta_mean_motion_ddot": 0,
        "tle_line1": "1 34797U 93036ABA 25356.51591154  .00007461  00000+0  21692-2 0  9992",
        "tle_line2": "2 34797  73.9783  81.7691 0071054 193.6898 166.2334 14.42950692875560"
      },
      "geometry": {
        "type": "Point",
        "coordinates": [
          -12.389481457516263,
          -73.94334266450562
        ]
      }
    },
    {
      "type": "Feature",
      "properties": {
        "norad_id": 34814,
        "name": "COSMOS 2251 DEB",
        "group": "cosmos-2251-debris",
        "lat": 29.83730020627025,
        "lon": -44.02208528802984,
        "alt_km": 804.6172966792456,
        "timestamp": "2025-12-22T23:36:21.111898+00:00",
        "meta_object_name": "COSMOS 2251 DEB",
        "meta_object_id": "1993-036ABD",
        "meta_epoch": "2025-12-22T07:27:06.710112",
        "meta_mean_motion": 14.36931752,
        "meta_eccentricity": 0.00555386,
        "meta_inclination": 73.8962,
        "meta_ra_of_asc_node": 307.6876,
        "meta_arg_of_pericenter": 195.2249,
        "meta_mean_anomaly": 315.8046,
        "meta_ephemeris_type": 0,
        "meta_classification_type": "U",
        "meta_norad_cat_id": 34814,
        "meta_element_set_no": 999,
        "meta_rev_at_epoch": 87470,
        "meta_bstar": 0.00068943391,
        "meta_mean_motion_dot": 2.051e-05,
        "meta_mean_motion_ddot": 0,
        "tle_line1": "1 34814U 93036ABD 25356.31049433  .00002051  00000+0  68943-3 0  9999",
        "tle_line2": "2 34814  73.8962 307.6876 0055538 195.2249 315.8046 14.36931752874706"
      },
      "geometry": {
        "type": "Point",
        "coordinates": [
          -44.02208528802984,
          29.83730020627025
        ]
      }
    }
  ]
}